ONEWEB-0545             
1 54647U 22166F   24127.46541110  .00000085  00000+0  17427-3 0  9997
2 54647  87.9316  37.6153 0001433  73.4441 286.6851 13.21824435 69555
ONEWEB-0580             
1 54648U 22166G   24127.51429430 -.00000082  00000+0 -23095-3 0  9991
2 54648  87.9322  37.5714 0001693  62.1838 297.9467 13.21823949 69601
ONEWEB-0582             
1 54649U 22166H   24127.48117634  .00000017  00000+0  92440-5 0  9996
2 54649  87.9319  37.6167 0001572  72.7823 287.3483 13.21823913 69576
ONEWEB-0583             
1 54650U 22166J   24127.49222326 -.00000022  00000+0 -83554-4 0  9997
2 54650  87.9317  37.6154 0002138  88.8115 271.3264 13.21824914 69586
ONEWEB-0584             
1 54651U 22166K   24127.28563337  .00000004  00000+0 -20942-4 0  9996
2 54651  87.9322  37.6198 0001693  69.2538 290.8777 13.21825080 69544
ONEWEB-0585             
1 54652U 22166L   24127.46225787  .00000055  00000+0  10181-3 0  9999
2 54652  87.9324  37.5926 0001775  85.2378 274.8959 13.21824289 69573
ONEWEB-0586             
1 54653U 22166M   24127.47486837  .00000003  00000+0 -23145-4 0  9995
2 54653  87.9319  37.6077 0001750  74.4137 285.7190 13.21823824 69574
ONEWEB-0587             
1 54654U 22166N   24127.48433137 -.00000005  00000+0 -44395-4 0  9995
2 54654  87.9317  37.5618 0002132  86.4680 273.6697 13.21825042 69734
